{
    "links": {
        "self": "http://www.neowsapp.com/rest/v1/neo/3609485?api_key=iIulBulltgU6a56xZRHN4H3l9WmuAYTsLGpBGhQ2"
    },
    "id": "3609485",
    "neo_reference_id": "3609485",
    "name": "(2012 SF58)",
    "designation": "2012 SF58",
    "nasa_jpl_url": "http://ssd.jpl.nasa.gov/sbdb.cgi?sstr=3609485",
    "absolute_magnitude_h": 25.9,
    "estimated_diameter": {
        "kilometers": {
            "estimated_diameter_min": 0.0175612318,
            "estimated_diameter_max": 0.0392681082
        },
        "meters": {
            "estimated_diameter_min": 17.561231848,
            "estimated_diameter_max": 39.2681081809
        },
        "miles": {
            "estimated_diameter_min": 0.0109120402,
            "estimated_diameter_max": 0.0244000636
        },
        "feet": {
            "estimated_diameter_min": 57.6155918963,
            "estimated_diameter_max": 128.8323800441
        }
    },
    "is_potentially_hazardous_asteroid": false,
    "close_approach_data": [
        {
            "close_approach_date": "2012-09-22",
            "close_approach_date_full": "2012-Sep-22 19:43",
            "epoch_date_close_approach": 1348342980000,
            "relative_velocity": {
                "kilometers_per_second": "14.3448707554",
                "kilometers_per_hour": "51641.5347196024",
                "miles_per_hour": "32088.0413928551"
            },
            "miss_distance": {
                "astronomical": "0.018308906",
                "lunar": "7.122164434",
                "kilometers": "2738973.33963022",
                "miles": "1701919.114208236"
            },
            "orbiting_body": "Earth"
        }
    ],
    "orbital_data": {
        "orbit_id": "4",
        "orbit_determination_date": "2017-04-06 08:48:50",
        "first_observation_date": "2012-09-26",
        "last_observation_date": "2012-09-27",
        "data_arc_in_days": 1,
        "observations_used": 20,
        "orbit_uncertainty": "8",
        "minimum_orbit_intersection": ".0142738",
        "jupiter_tisserand_invariant": "3.446",
        "epoch_osculation": "2456197.5",
        "eccentricity": ".5950461577978224",
        "semi_major_axis": "2.145765803525145",
        "inclination": "8.337116541418199",
        "ascending_node_longitude": "184.0705050390664",
        "orbital_period": "1148.079352615047",
        "perihelion_distance": ".8689361066035503",
        "perihelion_argument": "123.6720537245565",
        "aphelion_distance": "3.422595500446739",
        "perihelion_time": "2456155.996162533234",
        "mean_anomaly": "13.01424109231031",
        "mean_motion": ".3135671756312028",
        "equinox": "J2000",
        "orbit_class": {
            "orbit_class_type": "APO",
            "orbit_class_description": "Near-Earth asteroid orbits which cross the Earth’s orbit similar to that of 1862 Apollo",
            "orbit_class_range": "a (semi-major axis) > 1.0 AU; q (perihelion) < 1.017 AU"
        }
    },
    "is_sentry_object": false
}